HAWK-A                  
1 43765U 18099H   26195.71348040  .00003863  00000+0  15537-3 0  9995
2 43765  97.3898 247.5936 0034668 185.6155 174.4699 15.24960794417295
HAWK-B                  
1 43794U 18099AN  26195.70236875  .00003433  00000+0  14663-3 0  9990
2 43794  97.3949 246.9395 0031313 203.8074 156.1716 15.23111515417221
HAWK-C                  
1 43799U 18099AT  26195.95453501  .00004927  00000+0  17628-3 0  9992
2 43799  97.3875 248.8817 0040252 184.6529 175.4343 15.28488203418156
HAWK-2C                 
1 47502U 21006CT  26195.66509266  .00003786  00000+0  11375-3 0  9993
2 47502  97.2266 239.4301 0008654 102.3120 257.9093 15.34984988303714
HAWK-2A                 
1 47505U 21006CW  26195.66732211  .00003865  00000+0  11606-3 0  9999
2 47505  97.2307 240.1261 0008194 105.6995 254.5153 15.35000088303713
HAWK-2B                 
1 47508U 21006CZ  26195.66088927  .00004408  00000+0  13145-3 0  9994
2 47508  97.2177 238.4084 0008730 104.0713 256.1502 15.35131464303710
HAWK-3B                 
1 48931U 21059BE  26195.84557896  .00032217  00000+0  24905-3 0  9994
2 48931  97.6629  35.2168 0004409 199.2120 160.8977 15.71842993282191
HAWK-3C                 
1 48948U 21059BX  26195.52695099  .00028898  00000+0  22376-3 0  9995
2 48948  97.6746  40.5999 0004601 201.7329 158.3739 15.71823650282146
HAWK-3A                 
1 48957U 21059CG  26195.52683910  .00029930  00000+0  23169-3 0  9993
2 48957  97.6690  37.7828 0004534 203.2182 156.8876 15.71823724282149
HAWK-5C                 
1 52754U 22057Y   26195.89964248  .00010555  00000+0  17517-3 0  9991
2 52754  97.6611 357.3775 0002821 347.7825  12.3358 15.52318324230642
HAWK-5B                 
1 52756U 22057AA  26195.89945790  .00010614  00000+0  17614-3 0  9998
2 52756  97.6626 355.7308 0003510 333.2559  26.8511 15.52315637230649
HAWK-5A                 
1 52757U 22057AB  26195.89926134  .00010669  00000+0  17704-3 0  9990
2 52757  97.6620 356.5610 0003380 339.0948  21.0165 15.52316910230647
HAWK-6B                 
1 55324U 23011A   26195.39510780  .00002441  00000+0  10934-3 0  9992
2 55324  40.4968 193.3478 0004076 236.2544 123.7877 15.23148645191993
HAWK-6C                 
1 55326U 23011C   26195.39447733  .00002456  00000+0  10994-3 0  9993
2 55326  40.4960 190.1873 0004580 229.0104 131.0309 15.23150953192003
HAWK-6A                 
1 55327U 23011D   26195.39451434  .00002530  00000+0  11301-3 0  9993
2 55327  40.4969 191.8141 0004119 226.4695 133.5773 15.23150323192006
HAWK-7A                 
1 56191U 23054P   26195.75503732  .00003073  00000+0  11646-3 0  9994
2 56191  97.2666  82.3917 0001462 336.0363  24.0808 15.27629535181239
